1 25994U 99068A   09157.87909179  .00000001  00000-0  10268-4 0  7498
2 25994  98.2029 233.0316 0001645  80.5852 279.5523 14.57123125503656
1 25994U 99068A   09158.08509897 -.00000001  00000-0  98704-5 0  7498
2 25994  98.2030 233.2344 0001646  80.4469 279.6910 14.57123073503681
1 25994U 99068A   09158.42844393 -.00000004  00000-0  91888-5 0  7500
2 25994  98.2030 233.5725 0001647  80.0537 280.0846 14.57123167503734
1 25994U 99068A   09158.77178882 -.00000002  00000-0  96251-5 0  7519
2 25994  98.2030 233.9107 0001645  79.4508 280.6870 14.57123211503788
1 25994U 99068A   09158.90912692  .00000006  00000-0  11402-4 0  7527
2 25994  98.2030 234.0460 0001652  79.3199 280.8179 14.57123173503809
1 25994U 99068A   09159.04646504 -.00000009  00000-0  81095-5 0  7529
2 25994  98.2030 234.1812 0001653  79.1754 280.9627 14.57123100503828
1 25994U 99068A   09159.45847861  .00000036  00000-0  17997-4 0  7532
2 25994  98.2029 234.5869 0001643  79.2375 280.9010 14.57123552503884
1 25994U 99068A   09159.80182344  .00000039  00000-0  18624-4 0  7541
2 25994  98.2028 234.9249 0001649  78.9353 281.2032 14.57123653503933
1 25994U 99068A   09159.93916138  .00000024  00000-0  15427-4 0  7554
2 25994  98.2028 235.0601 0001646  79.1468 280.9911 14.57123566503951
1 25994U 99068A   09160.14516846  .00000086  00000-0  29181-4 0  7551
2 25994  98.2026 235.2630 0001617  79.4475 280.6924 14.57123921503981
1 25994U 99068A   09160.41984396  .00000069  00000-0  25393-4 0  7563
2 25994  98.2027 235.5334 0001627  80.1774 279.9605 14.57123878504022
1 25994U 99068A   09160.76318875  .00000059  00000-0  23175-4 0  7570
2 25994  98.2031 235.8719 0001629  80.5589 279.5788 14.57123894504078
1 25994U 99068A   09160.90052679  .00000050  00000-0  21153-4 0  7589
2 25994  98.2029 236.0071 0001642  80.2217 279.9156 14.57123795504094
1 25994U 99068A   09161.17520275  .00000123  00000-0  37261-4 0  7589
2 25994  98.2027 236.2777 0001606  81.5297 278.6108 14.57124331504134
1 25994U 99068A   09161.51854689  .00000159  00000-0  45383-4 0  7590
2 25994  98.2026 236.6157 0001589  82.3380 277.8003 14.57124617504188
1 25994U 99068A   09161.79322237  .00000160  00000-0  45578-4 0  7609
2 25994  98.2025 236.8861 0001602  81.7954 278.3416 14.57124724504225
1 25994U 99068A   09162.13656743  .00000109  00000-0  34252-4 0  7611
2 25994  98.2023 237.2241 0001598  83.7165 276.4219 14.57124571504275
1 25994U 99068A   09162.34257417  .00000085  00000-0  28812-4 0  7628
2 25994  98.2022 237.4270 0001603  83.7759 276.3619 14.57124516504300
1 25994U 99068A   09162.61725002  .00000084  00000-0  28599-4 0  7630
2 25994  98.2023 237.6975 0001609  83.6861 276.4528 14.57124626504340
1 25994U 99068A   09162.89192617  .00000005  00000-0  11187-4 0  7649
2 25994  98.2029 237.9684 0001640  88.2833 271.8570 14.57124182504388
1 25994U 99068A   09163.16660197  .00000018  00000-0  13942-4 0  7659
2 25994  98.2023 238.2387 0001610  83.1159 277.0236 14.57124342504428
1 25994U 99068A   09163.50994643  .00000030  00000-0  16743-4 0  7660
2 25994  98.2020 238.5768 0001590  83.1966 276.9417 14.57124454504472
1 25994U 99068A   09163.71595319  .00000035  00000-0  17865-4 0  7672
2 25994  98.2019 238.7797 0001611  83.9937 276.1451 14.57124556504501
1 25994U 99068A   09163.85329095  .00000045  00000-0  19943-4 0  7684
2 25994  98.2019 238.9149 0001624  83.7112 276.4270 14.57124590504523
1 25994U 99068A   09164.19663560  .00000066  00000-0  24686-4 0  7683
2 25994  98.2020 239.2530 0001618  84.0808 276.0581 14.57124798504578
1 25994U 99068A   09164.47131124  .00000043  00000-0  19608-4 0  7694
2 25994  98.2018 239.5234 0001618  84.1732 275.9650 14.57124733504615
1 25994U 99068A   09164.81465595 -.00000004  00000-0  92505-5 0  7702
2 25994  98.2018 239.8616 0001596  81.9644 278.1724 14.57124504504662
1 25994U 99068A   09165.15800100  .00000022  00000-0  14942-4 0  7713
2 25994  98.2019 240.1999 0001587  80.1469 279.9923 14.57124696504716
1 25994U 99068A   09165.43267646  .00000030  00000-0  16595-4 0  7722
2 25994  98.2019 240.4705 0001591  79.9304 280.2074 14.57124750504750
1 25994U 99068A   09165.84469004  .00000034  00000-0  17598-4 0  7738
2 25994  98.2015 240.8759 0001601  78.0491 282.0882 14.57124782504817
1 25994U 99068A   09166.18803483  .00000052  00000-0  21573-4 0  7748
2 25994  98.2015 241.2141 0001588  76.3037 283.8348 14.57124974504862
