OBJECT_NAME,OBJECT_ID,EPOCH,MEAN_MOTION,ECCENTRICITY,INCLINATION,RA_OF_ASC_NODE,ARG_OF_PERICENTER,MEAN_ANOMALY,EPHEMERIS_TYPE,CLASSIFICATION_TYPE,NORAD_CAT_ID,ELEMENT_SET_NO,REV_AT_EPOCH,BSTAR,MEAN_MOTION_DOT,MEAN_MOTION_DDOT
TERRA,1999-068A,2009-06-06T21:05:53.530656,14.57123125,.0001645,98.2029,233.0316,80.5852,279.5523,0,U,25994,749,50365,.10268E-4,.1E-7,0
TERRA,1999-068A,2009-06-07T02:02:32.551008,14.57123073,.0001646,98.2030,233.2344,80.4469,279.6910,0,U,25994,749,50368,.98704E-5,-.1E-7,0
TERRA,1999-068A,2009-06-07T10:16:57.555552,14.57123167,.0001647,98.2030,233.5725,80.0537,280.0846,0,U,25994,750,50373,.91888E-5,-.4E-7,0
TERRA,1999-068A,2009-06-07T18:31:22.554048,14.57123211,.0001645,98.2030,233.9107,79.4508,280.6870,0,U,25994,751,50378,.96251E-5,-.2E-7,0
TERRA,1999-068A,2009-06-07T21:49:08.565888,14.57123173,.0001652,98.2030,234.0460,79.3199,280.8179,0,U,25994,752,50380,.11402E-4,.6E-7,0
TERRA,1999-068A,2009-06-08T01:06:54.579456,14.57123100,.0001653,98.2030,234.1812,79.1754,280.9627,0,U,25994,752,50382,.81095E-5,-.9E-7,0
TERRA,1999-068A,2009-06-08T11:00:12.551904,14.57123552,.0001643,98.2029,234.5869,79.2375,280.9010,0,U,25994,753,50388,.17997E-4,.36E-6,0
TERRA,1999-068A,2009-06-08T19:14:37.545216,14.57123653,.0001649,98.2028,234.9249,78.9353,281.2032,0,U,25994,754,50393,.18624E-4,.39E-6,0
TERRA,1999-068A,2009-06-08T22:32:23.543232,14.57123566,.0001646,98.2028,235.0601,79.1468,280.9911,0,U,25994,755,50395,.15427E-4,.24E-6,0
TERRA,1999-068A,2009-06-09T03:29:02.554944,14.57123921,.0001617,98.2026,235.2630,79.4475,280.6924,0,U,25994,755,50398,.29181E-4,.86E-6,0
TERRA,1999-068A,2009-06-09T10:04:34.518144,14.57123878,.0001627,98.2027,235.5334,80.1774,279.9605,0,U,25994,756,50402,.25393E-4,.69E-6,0
TERRA,1999-068A,2009-06-09T18:18:59.508000,14.57123894,.0001629,98.2031,235.8719,80.5589,279.5788,0,U,25994,757,50407,.23175E-4,.59E-6,0
TERRA,1999-068A,2009-06-09T21:36:45.514656,14.57123795,.0001642,98.2029,236.0071,80.2217,279.9156,0,U,25994,758,50409,.21153E-4,.5E-6,0
TERRA,1999-068A,2009-06-10T04:12:17.517600,14.57124331,.0001606,98.2027,236.2777,81.5297,278.6108,0,U,25994,758,50413,.37261E-4,.123E-5,0
TERRA,1999-068A,2009-06-10T12:26:42.451296,14.57124617,.0001589,98.2026,236.6157,82.3380,277.8003,0,U,25994,759,50418,.45383E-4,.159E-5,0
TERRA,1999-068A,2009-06-10T19:02:14.412768,14.57124724,.0001602,98.2025,236.8861,81.7954,278.3416,0,U,25994,760,50422,.45578E-4,.16E-5,0
TERRA,1999-068A,2009-06-11T03:16:39.425952,14.57124571,.0001598,98.2023,237.2241,83.7165,276.4219,0,U,25994,761,50427,.34252E-4,.109E-5,0
TERRA,1999-068A,2009-06-11T08:13:18.408288,14.57124516,.0001603,98.2022,237.4270,83.7759,276.3619,0,U,25994,762,50430,.28812E-4,.85E-6,0
TERRA,1999-068A,2009-06-11T14:48:50.401728,14.57124626,.0001609,98.2023,237.6975,83.6861,276.4528,0,U,25994,763,50434,.28599E-4,.84E-6,0
TERRA,1999-068A,2009-06-11T21:24:22.421088,14.57124182,.000164,98.2029,237.9684,88.2833,271.8570,0,U,25994,764,50438,.11187E-4,.5E-7,0
TERRA,1999-068A,2009-06-12T03:59:54.410208,14.57124342,.000161,98.2023,238.2387,83.1159,277.0236,0,U,25994,765,50442,.13942E-4,.18E-6,0
TERRA,1999-068A,2009-06-12T12:14:19.371552,14.57124454,.000159,98.2020,238.5768,83.1966,276.9417,0,U,25994,766,50447,.16743E-4,.3E-6,0
TERRA,1999-068A,2009-06-12T17:10:58.355616,14.57124556,.0001611,98.2019,238.7797,83.9937,276.1451,0,U,25994,767,50450,.17865E-4,.35E-6,0
TERRA,1999-068A,2009-06-12T20:28:44.338080,14.57124590,.0001624,98.2019,238.9149,83.7112,276.4270,0,U,25994,768,50452,.19943E-4,.45E-6,0
TERRA,1999-068A,2009-06-13T04:43:09.315840,14.57124798,.0001618,98.2020,239.2530,84.0808,276.0581,0,U,25994,768,50457,.24686E-4,.66E-6,0
TERRA,1999-068A,2009-06-13T11:18:41.291136,14.57124733,.0001618,98.2018,239.5234,84.1732,275.9650,0,U,25994,769,50461,.19608E-4,.43E-6,0
TERRA,1999-068A,2009-06-13T19:33:06.274080,14.57124504,.0001596,98.2018,239.8616,81.9644,278.1724,0,U,25994,770,50466,.92505E-5,-.4E-7,0
TERRA,1999-068A,2009-06-14T03:47:31.286400,14.57124696,.0001587,98.2019,240.1999,80.1469,279.9923,0,U,25994,771,50471,.14942E-4,.22E-6,0
TERRA,1999-068A,2009-06-14T10:23:03.246144,14.57124750,.0001591,98.2019,240.4705,79.9304,280.2074,0,U,25994,772,50475,.16595E-4,.3E-6,0
TERRA,1999-068A,2009-06-14T20:16:21.219456,14.57124782,.0001601,98.2015,240.8759,78.0491,282.0882,0,U,25994,773,50481,.17598E-4,.34E-6,0
TERRA,1999-068A,2009-06-15T04:30:46.209312,14.57124974,.0001588,98.2015,241.2141,76.3037,283.8348,0,U,25994,774,50486,.21573E-4,.52E-6,0
